ISS (ZARYA)             
1 25544U 98067A   20299.61190972  .00001346  00000-0  32230-4 0  9995
2 25544  51.6450  63.1180 0001681  60.4858 113.5765 15.49332687252239
KESTREL EYE IIM (KE2M)  
1 42982U 98067NE  20299.39924491  .00027261  00000-0  19030-3 0  9992
2 42982  51.6334 336.2281 0001218 253.6354 106.4511 15.74092815171519
DELLINGR (RBLE)         
1 43021U 98067NJ  20299.51907722  .00029999  00000-0  20091-3 0  9998
2 43021  51.6342 333.3552 0000748  63.8899 296.2177 15.75000247167334
UBAKUSAT                
1 43467U 98067NQ  20299.36728607  .00103717  00000-0  40781-3 0  9997
2 43467  51.6331 329.1000 0003195  35.4611 324.6605 15.86085758140642
CUBERRT                 
1 43546U 98067NU  20299.34509754  .00204661  00000-0  81429-3 0  9997
2 43546  51.6321 331.2556 0003110  51.5986 308.5296 15.85530314130749
TEMPEST-D               
1 43547U 98067NV  20299.48891738  .00010247  00000-0  10837-3 0  9999
2 43547  51.6361  14.5371 0003858 178.3437 181.7572 15.64829935129864
RAINCUBE                
1 43548U 98067NW  20299.49117490  .00103642  00000-0  41894-3 0  9996
2 43548  51.6294 337.3888 0002163  10.2508 349.8539 15.85517909130804
HALOSAT                 
1 43549U 98067NX  20299.54245522  .00095563  00000-0  43806-3 0  9998
2 43549  51.6337 339.3915 0001571 347.9194  12.1771 15.82907789130342
EQUISAT                 
1 43552U 98067PA  20299.39799043  .00105423  00000-0  43491-3 0  9994
2 43552  51.6297 336.8945 0002296 343.5392  16.5537 15.85087409130735
RADSAT-G                
1 43553U 98067PB  20299.43365834  .00043210  00000-0  28677-3 0  9991
2 43553  51.6401 351.7911 0002157 251.4604 108.6161 15.75025177130594
AEROCUBE 12A            
1 43556U 18046C   20299.15792542  .00003498  00000-0  13000-3 0  9990
2 43556  51.6398 202.1711 0008595  44.8478 315.3196 15.30226263127236
AEROCUBE 12B            
1 43557U 18046D   20299.44054280  .00001805  00000-0  73770-4 0  9994
2 43557  51.6406 201.7904 0008774  44.8272 315.3416 15.29890184127217
LEMUR-2-VU              
1 43558U 18046E   20299.13669291  .00006818  00000-0  23099-3 0  9992
2 43558  51.6397 197.6511 0007886  49.6040 310.5629 15.31697440127286
LEMUR-2-ALEXANDER       
1 43559U 18046F   20299.08872929  .00005396  00000-0  18453-3 0  9999
2 43559  51.6395 197.3470 0008009  49.5210 310.6468 15.31843896127068
LEMUR-2-YUASA           
1 43560U 18046G   20299.42243038  .00004604  00000-0  16020-3 0  9991
2 43560  51.6400 196.5526 0008398  62.1824 298.0008 15.31633842127329
LEMUR-2-TOMHENDERSON    
1 43561U 18046H   20299.45630809  .00005086  00000-0  17715-3 0  9998
2 43561  51.6406 196.7723 0008407  60.7723 299.4098 15.31370594126886
SIRIUSSAT-1             
1 43595U 98067PG  20298.65781751  .00062264  00000-0  23108-3 0  9994
2 43595  51.6337 342.2179 0003866  24.1049 335.9310 15.87461147125448
SIRIUSSAT-2             
1 43596U 98067PH  20299.35731086  .00118615  00000-0  43069-3 0  9999
2 43596  51.6258 339.4513 0003023  15.2263 344.8767 15.87659448125544
1998-067PN              
1 43638U 98067PN  20299.49353050  .00021253  00000-0  19825-3 0  9996
2 43638  51.6365  12.2866 0000860 148.2054 211.8994 15.67275602117054
1998-067PP              
1 43639U 98067PP  20299.47662107  .00044198  00000-0  29157-3 0  9993
2 43639  51.6346 357.8631 0000618 141.1896 218.9148 15.75154436117249
STARS-ME                
1 43640U 98067PQ  20299.48839372  .00026756  00000-0  22454-3 0  9999
2 43640  51.6351   6.9315 0002243 153.7118 206.3993 15.69720316117125
ISS DEB (SEDA-AP)       
1 43870U 98067PU  20299.54417745  .00007018  00000-0  95280-4 0  9995
2 43870  51.6381  33.7189 0003926 168.0141 192.0945 15.58859768104939
CATSAT-2                
1 44029U 98067PV  20299.44044084  .00045363  00000-0  36334-3 0  9992
2 44029  51.6390  15.0371 0002462 257.3773 102.6950 15.70575985 98912
DELPHINI                
1 44030U 98067PW  20299.47648018  .00047492  00000-0  35078-3 0  9993
2 44030  51.6340  12.0838 0001770 268.1771  91.9025 15.72486840 98920
UNITE                   
1 44031U 98067PX  20299.52693425  .00019962  00000-0  21151-3 0  9990
2 44031  51.6387  25.3362 0001922 214.2594 145.8278 15.64112133 98757
CATSAT-1                
1 44033U 98067PZ  20299.37667576  .00042466  00000-0  34078-3 0  9990
2 44033  51.6393  15.3708 0002384 256.6599 103.4133 15.70560514 98811
ISS DEB                 
1 44303U 98067QA  20299.49689101  .00007719  00000-0  11798-3 0  9997
2 44303  51.6413  50.0191 0005506  91.3773 268.7849 15.55448458 79995
ISS DEB                 
1 44304U 98067QB  20299.44973451  .00052187  00000-0  46839-3 0  9990
2 44304  51.6380  32.4119 0003498  52.9065 307.2251 15.67744472 80231
ISS DEB                 
1 44305U 98067QC  20299.55374146  .00078971  00000-0  56054-3 0  9998
2 44305  51.6328  24.6406 0001048  17.4817 342.6217 15.73213520 80345
ISS DEB                 
1 44306U 98067QD  20299.31776210  .00009525  00000-0  14315-3 0  9994
2 44306  51.6399  51.0017 0006657  87.2022 272.9731 15.55587378 79978
RAAVANA-1               
1 44329U 98067QE  20299.56315109  .00022885  00000-0  27346-3 0  9994
2 44329  51.6393  40.6626 0004702 126.0261 234.1169 15.60902448 77308
UGUISU                  
1 44330U 98067QF  20299.58404871  .00022316  00000-0  26806-3 0  9992
2 44330  51.6372  40.7666 0004733 124.9120 235.2319 15.60781172 77282
NEPALISAT-1             
1 44331U 98067QG  20299.55434912  .00022467  00000-0  26849-3 0  9993
2 44331  51.6390  40.5717 0004642 129.3165 230.8240 15.60912104 77291
SPOOQY-1                
1 44332U 98067QH  20299.56797885  .00022016  00000-0  26502-3 0  9992
2 44332  51.6382  40.6715 0003883 130.7559 229.3772 15.60737911 77251
RED-EYE 1 (PINOT)       
1 44364U 98067QJ  20299.31301343  .00008667  00000-0  13227-3 0  9996
2 44364  51.6415  51.7726 0006956  88.6812 271.4976 15.55299703 75545
IOD-1 GEMS              
1 44385U 98067QK  20299.54129494  .00042543  00000-0  42042-3 0  9997
2 44385  51.6393  36.0598 0001899  50.4712 309.6451 15.65443856 74826
SWIATOWID               
1 44426U 98067QL  20299.59933850  .00047793  00000-0  43627-3 0  9999
2 44426  51.6405  33.8755 0001946  50.8343  81.5825 15.67369471 74871
KRAKSAT                 
1 44427U 98067QM  20299.59594030  .00014194  00000-0  19139-3 0  9993
2 44427  51.6422  45.9206 0003328  81.5188  42.7170 15.58084500 74756
VCC A                   
1 44428U 98067QN  20299.48579664  .00021025  00000-0  25971-3 0  9990
2 44428  51.6409  43.1966 0002130  89.3790 270.7448 15.60094999 74780
ENTRYSAT                
1 44429U 98067QP  20299.47798945  .00026606  00000-0  30635-3 0  9998
2 44429  51.6393  40.8471 0001834  71.7792 288.3401 15.61782287 74818
VCC C                   
1 44430U 98067QQ  20299.57844976  .00036803  00000-0  38619-3 0  9997
2 44430  51.6381  37.7717 0001155  73.2275 286.8846 15.63995194 73690
VCC B                   
1 44431U 98067QR  20299.48055610  .00021330  00000-0  26245-3 0  9998
2 44431  51.6388  43.1292 0002232  88.4130 271.7118 15.60188760 74722
ISS DEB                 
1 44788U 98067QT  20299.31517141  .00041081  00000-0  49561-3 0  9998
2 44788  51.6399  51.0155 0003175 116.8862 243.2456 15.60337513 53638
ISS DEB                 
1 44789U 98067QU  20299.57795825  .00032027  00000-0  40021-3 0  9996
2 44789  51.6400  50.5459 0004406 120.9007 239.2420 15.59530183 53652
RWASAT-1                
1 44790U 98067QV  20299.56987742  .00007711  00000-0  12296-3 0  9993
2 44790  51.6428  55.4830 0008603 139.4150 333.8552 15.54254908 52859
AQT-D                   
1 44791U 98067QW  20299.33327796  .00012598  00000-0  19634-3 0  9998
2 44791  51.6429  57.1792 0006780 111.7286 248.4427 15.54239589 52810
NARSSCUBE-1             
1 44792U 98067QX  20299.35978332  .00019522  00000-0  28252-3 0  9999
2 44792  51.6401  55.0655 0004709 133.5958 226.5425 15.55896732 52841
STPSAT-4                
1 45043U 98067QY  20299.58091877  .00006720  00000-0  12177-3 0  9999
2 45043  51.6421  61.7776 0005830 126.6598 233.4928 15.50894105 42010
HARP                    
1 45256U 98067QZ  20299.27473024  .00013847  00000-0  22805-3 0  9996
2 45256  51.6425  61.2561 0007242 117.5349 242.6377 15.52602186 38663
1998-067RA              
1 45257U 98067RA  20299.60472043  .00011187  00000-0  18696-3 0  9992
2 45257  51.6416  59.6970 0007907 122.7497 237.4256 15.52415676 38719
PHOENIX                 
1 45258U 98067RB  20299.50255850  .00008903  00000-0  15222-3 0  9991
2 45258  51.6413  60.5043 0006159 103.5040 256.6636 15.52083247 38662
1998-067RC              
1 45259U 98067RC  20299.35286918  .00017109  00000-0  27276-3 0  9994
2 45259  51.6410  60.2647 0006920 120.5224 239.6450 15.53323111 38681
CRYOCUBE                
1 45260U 98067RD  20299.39618780  .00016813  00000-0  26710-3 0  9999
2 45260  51.6413  59.8058 0007653 119.6191 240.5563 15.53430815 38701
AZTECHSAT-1             
1 45261U 98067RE  20299.60135476  .00019304  00000-0  29729-3 0  9991
2 45261  51.6410  58.1760 0007105 121.4304 238.7382 15.54185676 38734
RADSAT-U                
1 45262U 98067RF  20299.20786651  .00012172  00000-0  20204-3 0  9990
2 45262  51.6424  61.5582 0006727 154.5582 205.5740 15.52520075 38660
QARMAN                  
1 45263U 98067RG  20299.38285760  .00015902  00000-0  25590-3 0  9992
2 45263  51.6411  60.4631 0006885 116.8961 243.2733 15.53124686 38713
SORTIE                  
1 45264U 98067RH  20299.30118468  .00007344  00000-0  12957-3 0  9999
2 45264  51.6425  62.1736 0007797 124.8767 235.2956 15.51489800 38651
ICS-EF (ISS DEB)        
1 45265U 98067RJ  20299.36217344  .00004535  00000-0  86331-4 0  9996
2 45265  51.6421  63.3118 0005819 125.3060 234.8474 15.50355214 38324
PROGRESS-MS 14          
1 45595U 20026A   20299.53314448  .00001347  00000-0  32240-4 0  9992
2 45595  51.6450  63.5076 0001663  59.5376  34.9154 15.49332562252228
G-SAT                   
1 45597U 98067RK  20299.19024779  .00012638  00000-0  21309-3 0  9999
2 45597  51.6421  62.9322 0004896 178.4208 181.6798 15.52046399 28006
QUETZAL-1               
1 45598U 98067RL  20299.34024968  .00015190  00000-0  25416-3 0  9996
2 45598  51.6421  62.4311 0002662 205.2063 154.8797 15.52088177 27951
RED-EYE 2 (MERLOT)      
1 45800U 98067RM  20299.39047035  .00006615  00000-0  12192-3 0  9996
2 45800  51.6425  63.5086 0001568 146.6733 213.4355 15.50435952 20183
RED-EYE 3 (CABERNET)    
1 45809U 98067RN  20299.51990751  .00005397  00000-0  10087-3 0  9998
2 45809  51.6428  62.8737 0001791 136.9742 223.1388 15.50455856 19187
PROGRESS-MS 15          
1 45937U 20050A   20299.53314448  .00001347  00000-0  32240-4 0  9999
2 45937  51.6450  63.5076 0001663  59.5376  34.9154 15.49332562252228
CYGNUS NG-14            
1 46530U 20069A   20299.53314448  .00001347  00000-0  32240-4 0  9999
2 46530  51.6450  63.5076 0001663  59.5376  34.9154 15.49332562  3480
SOYUZ-MS 17             
1 46613U 20072A   20299.53314448  .00001347  00000-0  32240-4 0  9995
2 46613  51.6450  63.5076 0001663  59.5376  34.9154 15.49332562252220
